ASTROCAST-0103          
1 47487U 21006CC  26068.70056502  .00087857  00000+0  63760-3 0  9995
2 47487  97.2627 138.0845 0005706 147.8600 212.3013 15.73114428285528
STARLINK-11590 [DTC]    
1 63112U 25039J   26068.51860741  .00353463  00000+0  26459-2 0  9997
2 63112  43.0006 238.3144 0002447 298.2895  61.7726 15.70810558 59589
