[{"OBJECT_NAME":"ASTROCAST-0103","OBJECT_ID":"2021-006CC","EPOCH":"2026-03-09T16:48:48.818592","MEAN_MOTION":15.73114428,"ECCENTRICITY":0.00057063,"INCLINATION":97.2627,"RA_OF_ASC_NODE":138.0845,"ARG_OF_PERICENTER":147.86,"MEAN_ANOMALY":212.3013,"EPHEMERIS_TYPE":0,"CLASSIFICATION_TYPE":"U","NORAD_CAT_ID":47487,"ELEMENT_SET_NO":999,"REV_AT_EPOCH":28552,"BSTAR":0.00063759595,"MEAN_MOTION_DOT":0.00087857,"MEAN_MOTION_DDOT":0},{"OBJECT_NAME":"STARLINK-11590 [DTC]","OBJECT_ID":"2025-039J","EPOCH":"2026-03-09T12:26:47.680224","MEAN_MOTION":15.70810558,"ECCENTRICITY":0.00024476,"INCLINATION":43.0006,"RA_OF_ASC_NODE":238.3144,"ARG_OF_PERICENTER":298.2895,"MEAN_ANOMALY":61.7726,"EPHEMERIS_TYPE":0,"CLASSIFICATION_TYPE":"U","NORAD_CAT_ID":63112,"ELEMENT_SET_NO":999,"REV_AT_EPOCH":5958,"BSTAR":0.0026458938,"MEAN_MOTION_DOT":0.00353463,"MEAN_MOTION_DDOT":0}]
